{
  "norad_id": 28380,
  "name": "COSMOS 2407",
  "history": [
    {
      "epoch": "2026-03-28T21:39:44.134560",
      "apogee_km": 1006.8015329786085,
      "perigee_km": 947.0834361197076,
      "latitude_deg": -81.22670973977573,
      "longitude_deg": -15.350961599964648,
      "semi_major_axis_km": 7355.079484549157,
      "eccentricity": 0.00405965,
      "inclination_deg": 82.9595,
      "raan_deg": 134.3014,
      "arg_perigee_deg": 116.1591,
      "mean_anomaly_deg": 56.2658,
      "mean_motion_rev_day": 13.76327243
    },
    {
      "epoch": "2026-03-29T04:04:09.702336",
      "apogee_km": 1006.799418770318,
      "perigee_km": 947.0850016783488,
      "latitude_deg": 49.92368548576623,
      "longitude_deg": 10.277447040192783,
      "semi_major_axis_km": 7355.079210224333,
      "eccentricity": 0.0040594,
      "inclination_deg": 82.9595,
      "raan_deg": 134.1037,
      "arg_perigee_deg": 115.4416,
      "mean_anomaly_deg": 298.9771,
      "mean_motion_rev_day": 13.7632732
    }
  ]
}